CCSDS_OMM_VERS = 2.0
CREATION_DATE  = 
ORIGINATOR     = 

OBJECT_NAME    = ARIANE 5 R/B
OBJECT_ID      = 2004-049H
CENTER_NAME    = EARTH
REF_FRAME      = TEME
TIME_SYSTEM    = UTC
MEAN_ELEMENT_THEORY = SGP/SGP4

EPOCH          = 2025-11-15T16:47:43.221120
MEAN_MOTION    = 14.84932545
ECCENTRICITY   = .0084685
INCLINATION    = 98.2508
RA_OF_ASC_NODE = 119.0154
ARG_OF_PERICENTER = 1.4078
MEAN_ANOMALY   = 358.7358

EPHEMERIS_TYPE = 0
CLASSIFICATION_TYPE = U
NORAD_CAT_ID   = 28499
ELEMENT_SET_NO = 999
REV_AT_EPOCH   = 12887
BSTAR          = .16688E-3
MEAN_MOTION_DOT = .145E-4
MEAN_MOTION_DDOT = 0

CCSDS_OMM_VERS = 2.0
CREATION_DATE  = 
ORIGINATOR     = 

OBJECT_NAME    = RESURS-DK 1
OBJECT_ID      = 2006-021A
CENTER_NAME    = EARTH
REF_FRAME      = TEME
TIME_SYSTEM    = UTC
MEAN_ELEMENT_THEORY = SGP/SGP4

EPOCH          = 2025-11-15T20:08:42.984960
MEAN_MOTION    = 15.11948412
ECCENTRICITY   = .0007146
INCLINATION    = 69.9317
RA_OF_ASC_NODE = 171.3462
ARG_OF_PERICENTER = 282.6564
MEAN_ANOMALY   = 77.3803

EPHEMERIS_TYPE = 0
CLASSIFICATION_TYPE = U
NORAD_CAT_ID   = 29228
ELEMENT_SET_NO = 999
REV_AT_EPOCH   = 7031
BSTAR          = .20445E-3
MEAN_MOTION_DOT = .3409E-4
MEAN_MOTION_DDOT = 0

CCSDS_OMM_VERS = 2.0
CREATION_DATE  = 
ORIGINATOR     = 

OBJECT_NAME    = CZ-4B R/B
OBJECT_ID      = 2006-046C
CENTER_NAME    = EARTH
REF_FRAME      = TEME
TIME_SYSTEM    = UTC
MEAN_ELEMENT_THEORY = SGP/SGP4

EPOCH          = 2025-11-15T19:59:58.716672
MEAN_MOTION    = 15.15499217
ECCENTRICITY   = .0032836
INCLINATION    = 97.5781
RA_OF_ASC_NODE = 0.0460
ARG_OF_PERICENTER = 303.4604
MEAN_ANOMALY   = 56.3490

EPHEMERIS_TYPE = 0
CLASSIFICATION_TYPE = U
NORAD_CAT_ID   = 29507
ELEMENT_SET_NO = 999
REV_AT_EPOCH   = 4279
BSTAR          = .33099E-3
MEAN_MOTION_DOT = .6283E-4
MEAN_MOTION_DDOT = 0

CCSDS_OMM_VERS = 2.0
CREATION_DATE  = 
ORIGINATOR     = 

OBJECT_NAME    = CZ-2C R/B
OBJECT_ID      = 2007-010B
CENTER_NAME    = EARTH
REF_FRAME      = TEME
TIME_SYSTEM    = UTC
MEAN_ELEMENT_THEORY = SGP/SGP4

EPOCH          = 2025-11-15T17:38:44.963232
MEAN_MOTION    = 14.20193962
ECCENTRICITY   = .0057893
INCLINATION    = 98.3965
RA_OF_ASC_NODE = 73.7471
ARG_OF_PERICENTER = 265.4180
MEAN_ANOMALY   = 94.0383

EPHEMERIS_TYPE = 0
CLASSIFICATION_TYPE = U
NORAD_CAT_ID   = 31114
ELEMENT_SET_NO = 999
REV_AT_EPOCH   = 96354
BSTAR          = .17541E-3
MEAN_MOTION_DOT = .339E-5
MEAN_MOTION_DDOT = 0

CCSDS_OMM_VERS = 2.0
CREATION_DATE  = 
ORIGINATOR     = 

OBJECT_NAME    = COSMO-SKYMED 1
OBJECT_ID      = 2007-023A
CENTER_NAME    = EARTH
REF_FRAME      = TEME
TIME_SYSTEM    = UTC
MEAN_ELEMENT_THEORY = SGP/SGP4

EPOCH          = 2025-11-15T19:49:40.954080
MEAN_MOTION    = 14.95490619
ECCENTRICITY   = .000127
INCLINATION    = 97.8853
RA_OF_ASC_NODE = 145.0538
ARG_OF_PERICENTER = 80.5649
MEAN_ANOMALY   = 279.5715

EPHEMERIS_TYPE = 0
CLASSIFICATION_TYPE = U
NORAD_CAT_ID   = 31598
ELEMENT_SET_NO = 999
REV_AT_EPOCH   = 99787
BSTAR          = .44218E-3
MEAN_MOTION_DOT = .4838E-4
MEAN_MOTION_DDOT = 0

CCSDS_OMM_VERS = 2.0
CREATION_DATE  = 
ORIGINATOR     = 

OBJECT_NAME    = COSMOS 2428
OBJECT_ID      = 2007-029A
CENTER_NAME    = EARTH
REF_FRAME      = TEME
TIME_SYSTEM    = UTC
MEAN_ELEMENT_THEORY = SGP/SGP4

EPOCH          = 2025-11-15T18:20:39.215328
MEAN_MOTION    = 14.12888578
ECCENTRICITY   = .0002248
INCLINATION    = 70.9368
RA_OF_ASC_NODE = 82.5125
ARG_OF_PERICENTER = 70.4966
MEAN_ANOMALY   = 289.6398

EPHEMERIS_TYPE = 0
CLASSIFICATION_TYPE = U
NORAD_CAT_ID   = 31792
ELEMENT_SET_NO = 999
REV_AT_EPOCH   = 94800
BSTAR          = -.37989E-4
MEAN_MOTION_DOT = -.119E-5
MEAN_MOTION_DDOT = 0

CCSDS_OMM_VERS = 2.0
CREATION_DATE  = 
ORIGINATOR     = 

OBJECT_NAME    = SL-16 R/B
OBJECT_ID      = 2007-029B
CENTER_NAME    = EARTH
REF_FRAME      = TEME
TIME_SYSTEM    = UTC
MEAN_ELEMENT_THEORY = SGP/SGP4

EPOCH          = 2025-11-15T16:26:00.500928
MEAN_MOTION    = 14.14811981
ECCENTRICITY   = .0002147
INCLINATION    = 70.9772
RA_OF_ASC_NODE = 52.0266
ARG_OF_PERICENTER = 260.3174
MEAN_ANOMALY   = 266.0865

EPHEMERIS_TYPE = 0
CLASSIFICATION_TYPE = U
NORAD_CAT_ID   = 31793
ELEMENT_SET_NO = 999
REV_AT_EPOCH   = 94924
BSTAR          = .24141E-3
MEAN_MOTION_DOT = .418E-5
MEAN_MOTION_DDOT = 0

CCSDS_OMM_VERS = 2.0
CREATION_DATE  = 
ORIGINATOR     = 

OBJECT_NAME    = KORONAS-FOTON
OBJECT_ID      = 2009-003A
CENTER_NAME    = EARTH
REF_FRAME      = TEME
TIME_SYSTEM    = UTC
MEAN_ELEMENT_THEORY = SGP/SGP4

EPOCH          = 2025-11-15T16:08:06.567072
MEAN_MOTION    = 15.40371071
ECCENTRICITY   = .0011199
INCLINATION    = 82.4344
RA_OF_ASC_NODE = 34.1296
ARG_OF_PERICENTER = 201.0974
MEAN_ANOMALY   = 158.9812

EPHEMERIS_TYPE = 0
CLASSIFICATION_TYPE = U
NORAD_CAT_ID   = 33504
ELEMENT_SET_NO = 999
REV_AT_EPOCH   = 92817
BSTAR          = .42929E-3
MEAN_MOTION_DOT = .1742E-3
MEAN_MOTION_DDOT = 0

CCSDS_OMM_VERS = 2.0
CREATION_DATE  = 
ORIGINATOR     = 

OBJECT_NAME    = CZ-2C R/B
OBJECT_ID      = 2011-030B
CENTER_NAME    = EARTH
REF_FRAME      = TEME
TIME_SYSTEM    = UTC
MEAN_ELEMENT_THEORY = SGP/SGP4

EPOCH          = 2025-11-15T19:54:05.579136
MEAN_MOTION    = 14.80766768
ECCENTRICITY   = .0053205
INCLINATION    = 97.8363
RA_OF_ASC_NODE = 274.5409
ARG_OF_PERICENTER = 2.6854
MEAN_ANOMALY   = 24.1121

EPHEMERIS_TYPE = 0
CLASSIFICATION_TYPE = U
NORAD_CAT_ID   = 37731
ELEMENT_SET_NO = 999
REV_AT_EPOCH   = 77324
BSTAR          = .40308E-3
MEAN_MOTION_DOT = .3127E-4
MEAN_MOTION_DDOT = 0

