ARIANE 5 R/B            
1 28499U 04049H   25319.69980580  .00001450  00000+0  16688-3 0  9995
2 28499  98.2508 119.0154 0084685   1.4078 358.7358 14.84932545128878
RESURS-DK 1             
1 29228U 06021A   25319.83938640  .00003409  00000+0  20445-3 0  9996
2 29228  69.9317 171.3462 0007146 282.6564  77.3803 15.11948412 70310
CZ-4B R/B               
1 29507U 06046C   25319.83331848  .00006283  00000+0  33099-3 0  9992
2 29507  97.5781   0.0460 0032836 303.4604  56.3490 15.15499217 42797
CZ-2C R/B               
1 31114U 07010B   25319.73524263  .00000339  00000+0  17541-3 0  9995
2 31114  98.3965  73.7471 0057893 265.4180  94.0383 14.20193962963540
COSMO-SKYMED 1          
1 31598U 07023A   25319.82616845  .00004838  00000+0  44218-3 0  9992
2 31598  97.8853 145.0538 0001270  80.5649 279.5715 14.95490619997870
COSMOS 2428             
1 31792U 07029A   25319.76434277 -.00000119  00000+0 -37989-4 0  9992
2 31792  70.9368  82.5125 0002248  70.4966 289.6398 14.12888578948006
SL-16 R/B               
1 31793U 07029B   25319.68472802  .00000418  00000+0  24141-3 0  9995
2 31793  70.9772  52.0266 0002147 260.3174 266.0865 14.14811981949244
KORONAS-FOTON           
1 33504U 09003A   25319.67229823  .00017420  00000+0  42929-3 0  9998
2 33504  82.4344  34.1296 0011199 201.0974 158.9812 15.40371071928171
CZ-2C R/B               
1 37731U 11030B   25319.82923124  .00003127  00000+0  40308-3 0  9997
2 37731  97.8363 274.5409 0053205   2.6854  24.1121 14.80766768773247
